[{"OBJECT_NAME":"CHEOPS","OBJECT_ID":"2019-092B","EPOCH":"2026-03-09T21:50:28.376160","MEAN_MOTION":14.61888226,"ECCENTRICITY":0.00115482,"INCLINATION":98.1514,"RA_OF_ASC_NODE":258.5528,"ARG_OF_PERICENTER":54.8909,"MEAN_ANOMALY":305.3373,"EPHEMERIS_TYPE":0,"CLASSIFICATION_TYPE":"U","NORAD_CAT_ID":44874,"ELEMENT_SET_NO":999,"REV_AT_EPOCH":33139,"BSTAR":0.00010870283,"MEAN_MOTION_DOT":4.97e-6,"MEAN_MOTION_DDOT":0},{"OBJECT_NAME":"UNKNOWN","OBJECT_ID":"","EPOCH":"2026-03-09T22:20:15.128160","MEAN_MOTION":14.68191429,"ECCENTRICITY":0.01272152,"INCLINATION":88.4815,"RA_OF_ASC_NODE":244.0436,"ARG_OF_PERICENTER":152.1426,"MEAN_ANOMALY":208.6681,"EPHEMERIS_TYPE":0,"CLASSIFICATION_TYPE":"U","NORAD_CAT_ID":270425,"ELEMENT_SET_NO":999,"REV_AT_EPOCH":8285,"BSTAR":0.0022696266,"MEAN_MOTION_DOT":0.00014807,"MEAN_MOTION_DDOT":0}]
